ONEWEB-0160             
1 48060U 21025U   24002.37624426  .00000283  00000+0  73893-3 0  9995
2 48060  87.9002 138.7234 0001346 143.5717 216.5504 13.13469683135833
ONEWEB-0163             
1 48061U 21025V   24002.43815110  .00000394  00000+0  10447-2 0  9993
2 48061  87.9005 138.7080 0001668  91.5949 268.5371 13.13469557135965
ONEWEB-0159             
1 48062U 21025W   24002.80792738  .00000156  00000+0  39257-3 0  9992
2 48062  87.9000 138.6197 0001491  92.6316 267.4984 13.13469692135938
ONEWEB-0164             
1 48063U 21025X   24002.40957310 -.00000022  00000+0 -94637-4 0  9996
2 48063  87.9005 138.7105 0001698 110.6615 249.4697 13.13475163135869
ONEWEB-0167             
1 48064U 21025Y   24002.74367661  .00000337  00000+0  88813-3 0  9993
2 48064  87.9004 138.6516 0001594  96.0604 264.0707 13.13470350135895
ONEWEB-0166             
1 48065U 21025Z   24002.46037364 -.00000006  00000+0 -51699-4 0  9995
2 48065  87.9001 138.6979 0001306  92.2867 267.8412 13.13470036135936
ONEWEB-0151             
1 48066U 21025AA  24002.38578384  .00000017  00000+0  12206-4 0  9990
2 48066  87.9005 138.7219 0001625 107.0150 253.1157 13.13469502135865
ONEWEB-0170             
1 48067U 21025AB  24002.39370066 -.00000196  00000+0 -57242-3 0  9997
2 48067  87.9002 138.7212 0001840 122.8114 237.3193 13.13469248135827
